XRISM                   
1 57800U 23137A   24264.79791451  .00008407  00000+0  60552-3 0  9996
2 57800  31.0021 123.3458 0009235  72.4950 287.6695 15.02868099 57071
